Satellite: NOAA-14
Catalog number: 23455
Epoch time:      14303.43885519
Element set:     960
Inclination:      098.7716 deg
RA of node:       024.4261 deg
Eccentricity:    0.0009539
Arg of perigee:   021.5160 deg
Mean anomaly:     034.7325 deg
Mean motion:   14.13995611 rev/day
Decay rate:       1.30e-06 rev/day^2
Epoch rev:            2306
Checksum:              280

Satellite: NOAA-15
Catalog number: 25338
Epoch time:      14303.45867294
Element set:     400
Inclination:      098.7617 deg
RA of node:       297.1206 deg
Eccentricity:    0.0011744
Arg of perigee:   114.3792 deg
Mean anomaly:     011.8756 deg
Mean motion:   14.25494770 rev/day
Decay rate:       2.85e-06 rev/day^2
Epoch rev:           85611
Checksum:              313

Satellite: RESURS
Catalog number: 25394
Epoch time:      14302.95015015
Element set:     796
Inclination:      098.4322 deg
RA of node:       261.7663 deg
Eccentricity:    0.0001140
Arg of perigee:   172.2829 deg
Mean anomaly:     228.8851 deg
Mean motion:   14.24409720 rev/day
Decay rate:       1.19e-06 rev/day^2
Epoch rev:           84750
Checksum:              288

Satellite: FENGYUN1
Catalog number: 25730
Epoch time:      14303.47293697
Element set:     285
Inclination:      098.9230 deg
RA of node:       263.8189 deg
Eccentricity:    0.0023308
Arg of perigee:   084.9804 deg
Mean anomaly:     035.6289 deg
Mean motion:   14.12332125 rev/day
Decay rate:      3.065e-05 rev/day^2
Epoch rev:           79661
Checksum:              316

Satellite: OKEAN-0
Catalog number: 25860
Epoch time:      14302.93437101
Element set:     403
Inclination:      098.0619 deg
RA of node:       266.1450 deg
Eccentricity:    0.0001336
Arg of perigee:   083.1268 deg
Mean anomaly:     342.0768 deg
Mean motion:   14.75507088 rev/day
Decay rate:      1.117e-05 rev/day^2
Epoch rev:           82202
Checksum:              272

Satellite: NOAA-16
Catalog number: 26536
Epoch time:      14303.25563882
Element set:     898
Inclination:      098.9752 deg
RA of node:       004.0982 deg
Eccentricity:    0.0011143
Arg of perigee:   158.6749 deg
Mean anomaly:     201.4889 deg
Mean motion:   14.13049547 rev/day
Decay rate:        8.0e-08 rev/day^2
Epoch rev:           72718
Checksum:              332

Satellite: NOAA-17
Catalog number: 27453
Epoch time:      14303.45025956
Element set:     787
Inclination:      098.3224 deg
RA of node:       296.0960 deg
Eccentricity:    0.0012772
Arg of perigee:   134.3122 deg
Mean anomaly:     225.9108 deg
Mean motion:   14.24802375 rev/day
Decay rate:       3.16e-06 rev/day^2
Epoch rev:           64194
Checksum:              300

Satellite: NOAA-18
Catalog number: 28654
Epoch time:      14303.44960447
Element set:     312
Inclination:      099.1637 deg
RA of node:       285.7688 deg
Eccentricity:    0.0013460
Arg of perigee:   242.6331 deg
Mean anomaly:     228.1889 deg
Mean motion:   14.12086114 rev/day
Decay rate:       3.65e-06 rev/day^2
Epoch rev:           48665
Checksum:              322

Satellite: NOAA-19
Catalog number: 33591
Epoch time:      14303.50793944
Element set:     443
Inclination:      098.9600 deg
RA of node:       248.2280 deg
Eccentricity:    0.0015130
Arg of perigee:   097.5864 deg
Mean anomaly:     013.0304 deg
Mean motion:   14.11793067 rev/day
Decay rate:       2.42e-06 rev/day^2
Epoch rev:           29508
Checksum:              293

/EX
SB KEPS @ AMSAT  $ORB14303.M
Orbital Elements  14303.MISC

HR AMSAT ORBITAL ELEMENTS FOR MANNED AND MISCELLANEOUS SATELLITES
FROM WA5QGD FORT WORTH,TX October 30, 2014
BID: ORB14303.M
TO ALL RADIO AMATEURS BT

Satellite: HUBBLE
Catalog number: 20580
Epoch time:      14303.38714120
Element set:     146
Inclination:      028.4697 deg
RA of node:       228.0463 deg
Eccentricity:    0.0002993
Arg of perigee:   294.7248 deg
Mean anomaly:     012.8548 deg
Mean motion:   15.06048498 rev/day
Decay rate:      4.767e-05 rev/day^2
Epoch rev:           14511
Checksum:              300

Satellite: ISS
Catalog number: 25544
Epoch time:      14303.84410568
Element set:     328
Inclination:      051.6437 deg
RA of node:       147.1215 deg
Eccentricity:    0.0003495
Arg of perigee:   343.4607 deg
Mean anomaly:     092.7870 deg
Mean motion:   15.50800946 rev/day
Decay rate:     2.1771e-04 rev/day^2
Epoch rev:           91237
Checksum:              293

Satellite: CO-58
Catalog number: 28895
Epoch time:      14302.76499696
Element set:     910
Inclination:      097.8253 deg
RA of node:       137.6085 deg
Eccentricity:    0.0016251
Arg of perigee:   308.5398 deg
Mean anomaly:     051.4347 deg
Mean motion:   14.62142584 rev/day
Decay rate:      1.418e-05 rev/day^2
Epoch rev:           47991
Checksum:              350

Satellite: FALCON
Catalog number: 30776
Epoch time:      14302.63119013
Element set:     992
Inclination:      035.4295 deg
RA of node:       000.3100 deg
Eccentricity:    0.0001346
Arg of perigee:   078.4620 deg
Mean anomaly:     053.4770 deg
Mean motion:   15.18429010 rev/day
Decay rate:     1.3341e-04 rev/day^2
Epoch rev:           42116
Checksum:              240

Satellite: MAST
Catalog number: 31126
Epoch time:      14302.88824557
Element set:     191
Inclination:      097.9306 deg
RA of node:       276.8841 deg
Eccentricity:    0.0090358
Arg of perigee:   294.5715 deg
Mean anomaly:     124.8905 deg
Mean motion:   14.55528476 rev/day
Decay rate:      1.890e-05 rev/day^2
Epoch rev:           39998
Checksum:              349

Satellite: CAPE1
Catalog number: 31130
Epoch time:      14302.90204002
Element set:     196
Inclination:      097.9520 deg
RA of node:       273.7253 deg
Eccentricity:    0.0097301
Arg of perigee:   313.5113 deg
Mean anomaly:     045.8028 deg
Mean motion:   14.54777828 rev/day
Decay rate:      2.158e-05 rev/day^2
Epoch rev:           39939
Checksum:              287

Satellite: COMPASS
Catalog number: 32787
Epoch time:      14302.70434287
Element set:      86
Inclination:      097.6858 deg
RA of node:       352.3224 deg
Eccentricity:    0.0015125
Arg of perigee:   097.1487 deg
Mean anomaly:     263.1450 deg
Mean motion:   14.88722826 rev/day
Decay rate:      4.154e-05 rev/day^2
Epoch rev:           35219
Checksum:              311

Satellite: AAUSAT2
Catalog number: 32788
Epoch time:      14303.11175387
Element set:      74
Inclination:      097.6869 deg
RA of node:       353.8756 deg
Eccentricity:    0.0014481
Arg of perigee:   093.9822 deg
Mean anomaly:     266.3051 deg
Mean motion:   14.89521691 rev/day
Decay rate:      6.052e-05 rev/day^2
Epoch rev:           35232
Checksum:              323

