NOAA-14
1 23455U 94089A   14303.43885519  .00000130  00000-0  91470-4 0  9600
2 23455 098.7716 024.4261 0009539 021.5160 034.7325 14.13995611 23064
NOAA-15
1 25338U 98030A   14303.45867294  .00000285  00000-0  13951-3 0  4001
2 25338 098.7617 297.1206 0011744 114.3792 011.8756 14.25494770856114
RESURS
1 25394U 98043A   14302.95015015  .00000119  00000-0  69481-4 0  7961
2 25394 098.4322 261.7663 0001140 172.2829 228.8851 14.24409720847502
FENGYUN1
1 25730U 99025A   14303.47293697  .00003065  00000-0  16834-2 0  2856
2 25730 098.9230 263.8189 0023308 084.9804 035.6289 14.12332125796612
OKEAN-0
1 25860U 99039A   14302.93437101  .00001117  00000-0  17164-3 0  4031
2 25860 098.0619 266.1450 0001336 083.1268 342.0768 14.75507088822020
NOAA-16
1 26536U 00055A   14303.25563882  .00000008  00000-0  28404-4 0  8980
2 26536 098.9752 004.0982 0011143 158.6749 201.4889 14.13049547727182
NOAA-17
1 27453U 02032A   14303.45025956  .00000316  00000-0  15306-3 0  7878
2 27453 098.3224 296.0960 0012772 134.3122 225.9108 14.24802375641945
NOAA-18
1 28654U 05018A   14303.44960447  .00000365  00000-0  22455-3 0  3122
2 28654 099.1637 285.7688 0013460 242.6331 228.1889 14.12086114486656
NOAA-19
1 33591U 09005A   14303.50793944  .00000242  00000-0  15695-3 0  4438
2 33591 098.9600 248.2280 0015130 097.5864 013.0304 14.11793067295084
HUBBLE
1 20580U 90037B   14303.38714120  .00004767  00000-0  30692-3 0  1462
2 20580 028.4697 228.0463 0002993 294.7248 012.8548 15.06048498145112
ISS
1 25544U 98067A   14303.84410568  .00021771  00000-0  37755-3 0  3281
2 25544 051.6437 147.1215 0003495 343.4607 092.7870 15.50800946912370
CO-58
1 28895U 05043F   14302.76499696  .00001418  00000-0  29030-3 0  9104
2 28895 097.8253 137.6085 0016251 308.5398 051.4347 14.62142584479910
FALCON
1 30776U 07006E   14302.63119013  .00013341  00000-0  63457-3 0  9923
2 30776 035.4295 000.3100 0001346 078.4620 053.4770 15.18429010421169
MAST
1 31126U 07012K   14302.88824557  .00001890  00000-0  42099-3 0  1919
2 31126 097.9306 276.8841 0090358 294.5715 124.8905 14.55528476399987
CAPE1
1 31130U 07012P   14302.90204002  .00002158  00000-0  48297-3 0  1963
2 31130 097.9520 273.7253 0097301 313.5113 045.8028 14.54777828399391
COMPASS
1 32787U 08021E   14302.70434287  .00004154  00000-0  44939-3 0   866
2 32787 097.6858 352.3224 0015125 097.1487 263.1450 14.88722826352192
AAUSAT2
1 32788U 08021F   14303.11175387  .00006052  00000-0  63929-3 0   742
2 32788 097.6869 353.8756 0014481 093.9822 266.3051 14.89521691352327
